#dP2022  3 10 18  0  0.00000000      96 __u+U ITR00 EXT  IAC
## 2200 410400.00000000   900.00000000 59648 0.7500000000000
+  117   C06C07C08C09C10C11C12C13C14C16C19C20C21C22C23C24C25
+        C26C27C28C29C30C32C33C34C35C36C37C38C39C40C41C42C43
+        C44C45C46E01E02E03E04E05E07E08E09E10E11E12E13E14E15
+        E18E19E21E25E26E27E30E31E33E34E36G01G02G03G04G05G06
+        G07G08G09G10G11G12G13G14G15G16G17G18G19G20G21G22G23
+        G24G25G26G27G28G29G30G31G32J01J02J03R01R02R03R04R05
+        R07R08R09R11R12R13R14R15R17R18R19R20R21R22R24  0  0
++         9 10 10 10  9 12 10  9  9  9  9  9  9  8  8  8  9
++         7  9  9 10 10  9  8  7  7  8  9 10 11  8  8  7  9
++         8  8  8  7  8  7  7  8  8  8  8  7  7  7  8  7  7
++        10  8  9  8  7  8  8  8  7  7  8  7  7  6  8  8  7
++         9  7  7  7  7  8  7  6  6  7  7  7  8  8  7  8  8
++         8  8  8  7  8  9  7  8  7 11 10 10  8  7  9  8  9
++         8  9  7  7  9  9  7  8  8  9 10  8 10 10  7  0  0
%c M  cc GPS ccc cccc cccc cccc cccc ccccc ccccc ccccc ccccc
%c cc cc ccc ccc cccc cccc cccc cccc ccccc ccccc ccccc ccccc
%f  0.0000000  0.000000000  0.00000000000  0.000000000000000
%f  0.0000000  0.000000000  0.00000000000  0.000000000000000
%i    0    0    0    0      0      0      0      0         0
%i    0    0    0    0      0      0      0      0         0
/* IAC                                ULTRA-RAPID PREDICTION
/* S/V CLOCKS ARE ALIGNED TO GNSS TIME                      
/* G:C1WC2W R:C1PC2P E:C1XC5X C:C2IC6I J:C1CC2S             
/* PCV:IGS14_2196 OL/AL:FES2004  NONE     YN ORB:CoN CLK:CoN
*  2022 03 10 22 15  0.00000000
PC06  -3728.686222  26237.124125  32840.883094   -413.660039
PC07 -18611.138895  31624.063620 -20888.081895    151.223672
PC08  -7758.956888  40168.332828  -9871.493997    188.120543
PC09   7020.953315  30858.625356  28430.665561   -593.098326
PC10 -11325.023122  31680.365437 -25427.023258    139.036522
PC11 -14554.051436 -20174.349710  12735.504315    269.102196
PC12   3190.478043 -15895.063487  22751.102543    682.760453
PC13  -1953.032855  41960.678978  -1265.329509    -93.523103
PC14  -5679.282482 -14875.397672 -22889.419455    451.672954
PC16  -4725.942387  25198.435039  33671.647702     99.440591
PC19  15301.061259   8841.427206  21623.341302    887.578194
PC20  -3090.322596  17951.203664  21168.443890   -842.717156
PC21  20811.438405 -16789.363049  -7925.019849   -921.779299
PC22  25579.727111  -5720.409510   9544.396209   -960.139361
PC23 -16321.894302    669.437736  22621.552549   -945.773701
PC24   1129.657461 -27891.847351    596.577030   -945.983485
PC25 -11802.304836 -18485.095688  17257.869400   -767.778148
PC26  11124.358065 -21056.619401 -14590.655640    767.952077
PC27 -12382.416614  10572.644787 -22680.083852    689.888402
PC28 -23903.186492  -4658.192792 -13623.109928     41.966908
PC29  22077.822959  16649.510865  -3795.138167    525.875970
PC30   6425.317615  19416.843171 -19003.145196    494.905700
PC32 -20699.290622  16971.684154   7928.747866   -970.102000
PC33 -15323.100535  -8792.069698 -21595.822140   -964.429655
PC34  -7327.576496 -19611.356035  18427.393957   -451.245808
PC35  24340.816766   4475.855820  12924.984712    176.179610
PC36  11124.023035  19164.261856 -16941.706643   -936.589584
PC37 -12126.362146  19847.456258  15411.042320   -944.289278
PC38 -11653.071513  37215.843466 -15804.046490    217.040628
PC39 -10975.324075  21482.840450  34599.345134     34.857462
PC40 -25315.849626  26497.734296 -21007.072471    251.178319
PC41 -25497.455129   5526.944150  -9847.541215   -952.876681
PC42   4097.944298 -18209.394968 -20691.821010   -936.844566
PC43 -21646.049674 -17026.620984   4404.483158   -936.882523
PC44  12313.801103 -10919.751540  22530.416247    590.646780
PC45  16211.491997  -1008.905620 -22697.489060    701.342966
PC46   -134.529544  27812.334755  -2002.786908   -210.821310
PE01 -12502.998845  26316.498284  -5194.718735   -594.323733
PE02  12417.212097 -26348.566859   5325.679537    285.411611
PE03   8695.660091 -16102.922337 -23262.396809   -536.038295
PE04  13525.060986  15513.433893  21282.347761   -981.773874
PE05  26254.009348  -7231.477173 -11598.398873   -201.590712
PE07 -28281.370721  -5706.719254  -6626.913973   -647.054842
PE08 -13999.393442 -15218.638630 -21179.953770   -492.972066
PE09  28366.818927   5430.677561   6457.566645   5332.950167
PE10  18067.450673  21890.495704   8403.607409   -499.775075
PE11  19953.394565  13571.185826  17153.106117   4262.484038
PE12  13311.208079  26426.526215  -1199.099708   4719.952001
PE13 -19913.500660 -14152.074612 -16697.087182    427.178217
PE14  -7205.021428 -16453.371620  17398.610685  -1773.665679
PE15 -13276.813081 -26413.307413   1374.181867    758.560585
PE18  -2544.054726  19981.103257 -24139.670804  -1699.277847
PE19 -11422.533277  15329.819045  22605.134929  -1101.356967
PE21 -20710.372372  17194.328916  12296.621866   -721.788143
PE25  20761.672702 -16992.011128 -12519.309820   -566.351478
PE26 -14430.227489   7416.388183 -24749.790348   -897.463786
PE27 -17551.692591  -2385.981631  23709.706508   -250.244542
PE30  -3149.696395 -21127.489773  20485.225999   -338.181100
PE31   4104.675579  20373.508967 -21072.198354   -493.344936
PE33  -1136.816344  23055.245361 -18530.112358   -458.693758
PE34    946.691690 -23165.111713  18400.431145   -506.069664
PE36  14818.891328  -6321.668864  24838.315696   -343.485775
PG01  15498.197323   1572.650246  21287.586935    412.025479
PG02 -14931.417270 -20433.114436  -7164.441198   -652.087849
PG03  20219.673261  -8846.581680  14592.172096   -157.591863
PG04  25552.872672    -45.737303  -7394.543549   -184.515792
PG05 -14131.114608  -6530.982861 -21693.961858    -74.222867
PG06  -4667.781617 -25282.577862   6570.880939    227.111459
PG07   8857.682824 -15496.907555 -19121.087520    315.309021
PG08  25869.408483   6051.391003  -3176.660523    -59.337374
PG09  19118.066176  -8804.724065 -16285.139666   -350.430911
PG10  -9385.495288  22498.238437  10325.810598   -343.129808
PG11 -12734.614681 -21842.372769  -8163.492682    -65.702600
PG12 -20033.550303   4628.700986  16471.481588   -182.951342
PG13 -21084.960516 -13363.425744  -9460.263313    274.739121
PG14  11000.333895 -22242.330720   9362.358394    -92.565368
PG15 -26391.643693  -3364.319478  -3030.939418    -77.778102
PG16  10330.235950  11081.193443 -22076.195204   -479.154161
PG17   3830.915378 -14505.913334  22351.581465    585.554419
PG18  -8726.023735  15629.117370 -19590.494071    222.758644
PG19  -4959.269415 -15769.007435  20573.377333    129.333720
PG20  -7792.824742 -15560.020935 -20127.241313    516.354547
PG21  18208.304639  11344.904076  16729.499765    159.213649
PG22   8152.711360  16316.942087  19773.813762    225.555044
PG23 -16677.722550  20594.035464   -674.016958     -5.718254
PG24 -17792.656385  -5281.426152  18846.164438    269.142345
PG25 -19488.429143  16416.334977   6673.742665    296.552124
PG26   1035.641416  20002.409773 -17375.732473    189.759662
PG27  19572.372804  12539.212605 -13410.131075    149.572494
PG28   4293.942939 -20644.829656  16804.030063    383.287034
PG29 -21064.136337   5362.551100 -15352.670377   -489.821607
PG30   3067.578400 -22226.459212 -13944.159062   -517.992880
PG31   5966.960973  25331.115567   3722.518784   -168.351028
PG32   1084.354211  15573.470274  21639.358489    -82.339164
PJ01 -32133.290279  24011.788324  17842.341259    205.748449
PJ02 -32992.609443  25197.588075  12318.426000     -1.881359
PJ03 -23930.919770  17839.206117 -25185.348414     -0.916240
PR01  19481.956906 -11958.292579 -11300.798291      7.206221
PR02   1203.945196 -11474.622454 -22709.836934    512.099464
PR03 -16470.593211  -4470.761445 -18887.386705     52.876409
PR04 -24591.972280   4924.351642  -4595.315184    131.317644
PR05 -19187.733891  11496.328553  12253.540434     89.132631
PR07  17102.559741   4122.951467  18533.124236     32.501913
PR08  24615.910928  -4971.661801   4608.488906    -63.958454
PR09  -1535.636047  24357.398768  -7529.404579     43.664798
PR11  11787.253207  -4782.038204 -22102.225085     43.850074
PR12   9928.730152 -21211.890667 -10115.560298     17.399038
PR13   2312.412755 -24573.172334   6429.206369    -19.298262
PR14  -7227.132905 -13140.205561  20635.552341     75.247039
PR15 -12047.491922   5450.021156  21825.540525     97.626282
PR17 -18801.776064 -17215.484234  -1269.768776    508.461611
PR18 -17941.622122  -7020.989260 -16667.544069    109.889058
PR19  -8757.434659   5780.859839 -23247.583828   -181.102376
PR20   7985.290485  18303.597108 -15892.416853    -66.492330
PR21  19060.352113  16710.552427   2769.433327   -284.286598
PR22  17627.751994   6543.776988  17280.462539   -169.789963
PR24  -8676.835776 -18520.180923  15266.331222     83.787675
EOF
